0 COSMOS 1261 DEB
1 12894U 81031G   13281.30069291  .00000805  00000-0  00000+0 0  3819
2 12894 069.1660 336.7895 5831028 121.2945 342.7980 02.00382572228662
0 COSMOS 1261 DEB
1 12894U 81031G   13285.29587314  .00000818  00000-0  00000+0 0  3827
2 12894 069.1725 336.5556 5829137 121.1871 344.8697 02.00389276228746
0 COSMOS 1261 DEB
1 12894U 81031G   13290.28353605  .00000772  00000-0  00000+0 0  3836
2 12894 069.1792 336.2660 5826939 121.0500 343.0423 02.00397496228840
0 COSMOS 1261 DEB
1 12894U 81031G   13294.27102104  .00000715  00000-0  00000+0 0  3843
2 12894 069.1842 336.0348 5825282 120.9409 339.7787 02.00403895228928
